IRIDIUM 7 [-]           
1 24793U 97020B   23241.65040305  .00000334  00000+0  11083-3 0  9993
2 24793  86.3912  92.3160 0002288  91.3322 268.8136 14.34874406377571
IRIDIUM 5 [-]           
1 24795U 97020D   23241.97203270  .00002480  00000+0  25241-3 0  9997
2 24795  86.3970  23.9043 0127982 318.4836  40.6719 14.84327675387704
IRIDIUM 4 [-]           
1 24796U 97020E   23242.12203259  .00000394  00000+0  12940-3 0  9997
2 24796  86.3904  89.4304 0002054  92.4818 267.6614 14.35778764378182
IRIDIUM 914 [-]         
1 24836U 97030A   23242.16438720  .00000405  00000+0  12339-3 0  9995
2 24836  86.3892  99.9375 0001458 147.6011 212.5277 14.39571313374660
IRIDIUM 16 [-]          
1 24841U 97030F   23241.78144991  .00000407  00000+0  12960-3 0  9994
2 24841  86.4032 121.3267 0004217  74.7852 285.3812 14.37470796372529
IRIDIUM 911 [-]         
1 24842U 97030G   23242.19486130  .00000535  00000+0  14432-3 0  9993
2 24842  86.4455 120.5191 0016129 121.0824 239.1964 14.45974624380078
IRIDIUM 17 [-]          
1 24870U 97034B   23242.26279596  .00000473  00000+0  15439-3 0  9991
2 24870  86.4016 150.7740 0003060  51.2083 308.9387 14.36572467369236
IRIDIUM 920 [-]         
1 24871U 97034C   23242.19130747  .00000465  00000+0  14039-3 0  9994
2 24871  86.3995 131.5894 0013847  87.5610 272.7175 14.40286916372234
